[{"OBJECT_NAME":"MONITOR-3 (RS58S)","OBJECT_ID":"2023-091Q","EPOCH":"2026-03-09T23:24:02.583360","MEAN_MOTION":15.25747617,"ECCENTRICITY":0.0013676,"INCLINATION":97.5199,"RA_OF_ASC_NODE":131.7909,"ARG_OF_PERICENTER":91.0881,"MEAN_ANOMALY":269.1924,"EPHEMERIS_TYPE":0,"CLASSIFICATION_TYPE":"U","NORAD_CAT_ID":57180,"ELEMENT_SET_NO":999,"REV_AT_EPOCH":14915,"BSTAR":0.00054974842,"MEAN_MOTION_DOT":0.00014004,"MEAN_MOTION_DDOT":0},{"OBJECT_NAME":"STARLINK-32547","OBJECT_ID":"2024-207H","EPOCH":"2026-03-09T22:20:27.777120","MEAN_MOTION":15.27587154,"ECCENTRICITY":0.00027134,"INCLINATION":43.0018,"RA_OF_ASC_NODE":279.9755,"ARG_OF_PERICENTER":260.3906,"MEAN_ANOMALY":99.6639,"EPHEMERIS_TYPE":0,"CLASSIFICATION_TYPE":"U","NORAD_CAT_ID":61919,"ELEMENT_SET_NO":999,"REV_AT_EPOCH":7475,"BSTAR":0.00090826903,"MEAN_MOTION_DOT":0.00024822,"MEAN_MOTION_DDOT":0}]
